XRISM                   
1 57800U 23137A   24156.86043223  .00006388  00000+0  48123-3 0  9997
2 57800  31.0030  91.0718 0009286  85.8016 274.3681 15.01064254 40832
